METAR EKBI 122320Z AUTO 10003KT 9999NDV OVC069 12/07 Q1018=
METAR EKBI 122250Z AUTO 08006KT 9999NDV OVC072 12/06 Q1018=
METAR EKBI 122220Z AUTO 09008KT 9999NDV OVC073 13/06 Q1018=
METAR EKBI 122150Z AUTO 09009KT 9999NDV BKN071 13/06 Q1018=
METAR EKBI 122120Z AUTO 10006KT 9999NDV BKN073 12/06 Q1018=
METAR EKBI 122050Z AUTO 10006KT 9999NDV BKN075 12/05 Q1018=
METAR EKBI 122020Z AUTO 10006KT 9999NDV BKN077 11/05 Q1018=
METAR EKBI 121950Z AUTO 10007KT 9999NDV SCT077 12/04 Q1018=
METAR EKBI 121920Z AUTO 10005KT 9999NDV NCD 12/04 Q1018=
METAR EKBI 121850Z AUTO 09005KT 9999NDV NCD 13/05 Q1018=
METAR EKBI 121820Z AUTO 08006KT 9999NDV NCD 13/06 Q1018=
METAR EKBI 121750Z AUTO 08010KT 9999NDV BKN079 16/06 Q1018=
METAR EKBI 121720Z AUTO 08008KT 9999NDV BKN080 15/06 Q1018=
METAR EKBI 121650Z AUTO 09010KT 9999NDV BKN080 17/07 Q1018=
METAR EKBI 121620Z AUTO 11007KT 9999NDV NCD 18/08 Q1018=
METAR EKBI 121550Z AUTO 10007KT 9999NDV NCD 17/08 Q1018=
METAR EKBI 121520Z AUTO 10008KT 9999NDV FEW078 18/08 Q1018=
METAR EKBI 120650Z AUTO 10006KT 9999NDV BKN079 13/08 Q1020=
METAR EKBI 120620Z AUTO 10005KT 9999NDV BKN083 13/09 Q1020=
METAR EKBI 120550Z AUTO 11004KT 9999NDV BKN084 11/08 Q1020=
METAR EKBI 120520Z AUTO 09003KT 9999NDV BKN084 10/08 Q1020=
METAR EKBI 120450Z AUTO 09003KT 9999NDV BKN084 08/07 Q1020=
METAR EKBI 120020Z AUTO 00000KT 9999NDV NCD 05/04 Q1020=